RIGIDSPHERE 2 (LCS 4)   
1 05398U 71067E   25111.14583009  .00001316  00000+0  42838-3 0  9994
2 05398  87.6146  96.0006 0059891 190.2826 169.7153 14.37090784813489
RADIO ROSTO (RS-15)     
1 23439U 94085A   25110.86668881 -.00000025  00000+0  49554-3 0  9994
2 23439  64.8153 266.1984 0145775  84.0913 277.6604 11.27581559248280
REIMEI (INDEX)          
1 28810U 05031B   25110.71326603  .00008856  00000+0  62342-3 0  9991
2 28810  97.9818 212.7463 0023550 101.1026 259.2849 15.05069814 67320
RESURS-DK 1             
1 29228U 06021A   25110.67929891  .00004068  00000+0  25151-3 0  9996
2 29228  69.9362 351.1039 0007905 257.7331 102.2949 15.10651507 38718
RADARSAT-2              
1 32382U 07061A   25111.46336145  .00000172  00000+0  83488-4 0  9998
2 32382  98.5802 119.4101 0001278  88.0057 272.1272 14.29984317905796
RADUGA-1M 2             
1 36358U 10002A   25110.91584926 -.00000247  00000+0  00000+0 0  9993
2 36358   2.5162  84.1727 0006765 257.1457 329.8725  0.98968715 45847
RASCOM-QAF 1R           
1 36831U 10037B   25111.46086427  .00000022  00000+0  00000+0 0  9991
2 36831   0.0442  96.4755 0006167 292.3001 349.7999  1.00272896 54066
RESOURCESAT-2           
1 37387U 11015A   25111.49970189  .00000469  00000+0  23012-3 0  9992
2 37387  98.8121 175.6975 0009516   1.0410 359.0785 14.22540957726782
RASAT                   
1 37791U 11044D   25111.55911062  .00001299  00000+0  23694-3 0  9993
2 37791  98.0653 204.3299 0022174  88.9728 327.7591 14.67509239731356
RADUGA-1M 3             
1 39375U 13062A   25111.54002878  .00000161  00000+0  00000+0 0  9999
2 39375   4.8848  77.5540 0001151 260.7354 100.9844  1.00272141 41902
RISING 2                
1 39769U 14029D   25111.50426894  .00009936  00000+0  97027-3 0  9992
2 39769  97.6974 183.5271 0002273 255.2598 104.8369 14.92591416590530
RAVAN                   
1 41849U 16067B   25111.51503962  .00023417  00000+0  84059-3 0  9992
2 41849  98.0505 316.5165 0010281  54.1388 306.0803 15.28643073462846
RESOURCESAT-2A          
1 41877U 16074A   25111.48195571  .00000308  00000+0  16005-3 0  9990
2 41877  98.6075 184.1472 0001848 131.2746 228.8591 14.21680088434392
RADFXSAT (FOX-1B)       
1 43017U 17073E   25110.17279170  .00015855  00000+0  82577-3 0  9991
2 43017  97.5328 342.2291 0174566 338.9104  20.4983 15.03779264401635
RANGE-A                 
1 43773U 18099R   25110.59691239  .00007143  00000+0  46092-3 0  9992
2 43773  97.4541 160.4517 0011432  13.6669 346.4867 15.08517663348681
RISAT-2B                
1 44233U 19028A   25111.08570949  .00006371  00000+0  48884-3 0  9999
2 44233  36.9980 336.2371 0003581 159.1273 200.9616 15.01510350324490
RCM-1                   
1 44322U 19033A   25111.45851215  .00000959  00000+0  98705-4 0  9997
2 44322  97.7600 119.9188 0001489  89.3856 270.7534 14.92588060319176
RCM-3                   
1 44323U 19033B   25111.48112431  .00001828  00000+0  18318-3 0  9998
2 44323  97.7602 120.0363 0001587  85.3330 274.8071 14.92587850319198
RCM-2                   
1 44324U 19033C   25111.50333999  .00002335  00000+0  23247-3 0  9997
2 44324  97.7599 120.0103 0001487  89.4397 270.6993 14.92590652319183
RISAT-2BR1              
1 44857U 19089F   25111.41195697  .00006461  00000+0  49575-3 0  9996
2 44857  36.9597  92.9320 0013817 358.5644   1.5057 15.01432565293823
RS-44 & BREEZE-KM R/B   
1 44909U 19096E   25110.83192165  .00000033  00000+0  83001-4 0  9996
2 44909  82.5186 260.3309 0218173  52.1146 309.9467 12.79740282248321
RISAT-2BR2              
1 46905U 20081A   25111.21278508  .00007107  00000+0  54321-3 0  9990
2 46905  36.8980 208.8750 0014768 295.8340  64.0878 15.01509091244023
R2                      
1 46913U 20081J   25109.47176560  .00010688  00000+0  52588-3 0  9990
2 46913  36.8980 135.4471 0008990 310.1053  49.8905 15.17434905247426
RSW-01                  
1 49112U 21076A   25111.53677215  .00000253  00000+0  41834-3 0  9991
2 49112  86.4034 308.4963 0016003 158.8776 201.3033 13.42825070179291
RSW-02                  
1 49114U 21076C   25111.53096246  .00000251  00000+0  41356-3 0  9999
2 49114  86.4033 308.4846 0019702 156.9808 203.2224 13.42848935179294
RAISE 2                 
1 49397U 21102C   25111.53400561  .00010420  00000+0  55718-3 0  9997
2 49397  97.3762 151.2829 0008570 324.0908  35.9748 15.15221404189450
RANDEV                  
1 52898U 22065E   25111.46171987  .00002352  00000+0  47270-3 0  9994
2 52898  98.1618 253.6900 0006781 265.5677  94.4750 14.62539121149582
ROBUSTA-1F (MTCUBE 2)   
1 53109U 22080E   25110.94284277 -.00000003  00000+0  00000+0 0  9994
2 53109  70.1252  85.0820 0008569  18.1921 341.9044  6.42584395 64933
RUNNER-1 (TYVAK-1005)   
1 56953U 23084X   25111.29950702  .00013388  00000+0  49265-3 0  9990
2 56953  97.5690 237.2794 0009428  20.3612 339.8001 15.27951566102988
ROBUSTA-1E (ENSO)       
1 58470U 23185J   25111.47999810  .00071093  00000+0  12511-2 0  9991
2 58470  97.3764 185.2179 0007464 243.9195 116.1288 15.50190372 77418
RAPTOR4                 
1 58956U 24028B   25110.56229648 -.00000008  00000+0  78465-4 0  9992
2 58956  39.9897 185.3460 0011756 331.9870  28.0243 13.70366099 59072
RAPTOR1                 
1 58957U 24028C   25111.49502651  .00000001  00000+0  87920-4 0  9992
2 58957  39.9889 180.8919 0011710 338.4594  21.5659 13.70413291 59209
RAPTOR3                 
1 58958U 24028D   25111.18890691 -.00000029  00000+0  54826-4 0  9993
2 58958  39.9898 182.1597 0011342 338.1943  21.8320 13.70452937 59166
RAPTOR2                 
1 58959U 24028E   25110.58910891 -.00000005  00000+0  81178-4 0  9996
2 58959  39.9893 184.7297 0011572 336.1236  23.8973 13.70512811 59080
RROCI-2                 
1 59106U 24043J   25111.35862097  .00005391  00000+0  47395-3 0  9992
2 59106  97.7916 238.1522 0006924 335.2239  24.8649 14.96948795 61599
RESURS-P 4              
1 59371U 24061A   25111.51209038  .00007146  00000+0  22223-3 0  9997
2 59371  97.2264  63.0206 0002463  61.9006 298.2485 15.33617762 59183
R5-S4                   
1 60206U 24125D   25111.52435893  .00017271  00000+0  58802-3 0  9990
2 60206  97.2879 323.2459 0020346 309.2494  50.6941 15.30270575 44392
R5-S2                   
1 60207U 24125E   25111.14490168  .00016193  00000+0  54178-3 0  9999
2 60207  97.2876 322.9743 0020303 311.6263  48.3239 15.30850369 44340
ROBUSTA-3A (MEDITERRAN*)
1 60243U 24128J   25110.78716291  .00011378  00000+0  81908-3 0  9990
2 60243  61.9887 252.7456 0045605  39.8992 320.5436 15.03789119 42730
ROCK                    
1 60474U 24149G   25110.66092018  .00015900  00000+0  60808-3 0  9991
2 60474  97.4115 189.2000 0000798  12.0220 348.1037 15.26671134 37542
RUZAEVKA 390 (RS44S)    
1 61766U 24199AH  25111.49930154  .00045091  00000+0  12324-2 0  9998
2 61766  97.3623 341.1819 0010216   2.2308 357.8980 15.37197641 69470
RTU MIREA 1 (RS51S)     
1 61785U 24199BC  25111.58912903  .00029997  00000+0  97065-3 0  9994
2 61785  97.3618 340.4210 0015379  16.3311 343.8423 15.31887386 69436
RESURS-P 5              
1 62430U 24250A   25111.54645535  .00007120  00000+0  22202-3 0  9995
2 62430  97.2634  39.3470 0002867  79.4103 280.7463 15.33530929 17975
RAY 1.0                 
1 62627U 25009U   25110.88146098  .00004850  00000+0  24770-3 0  9991
2 62627  97.4314 191.9551 0008108 316.0187  44.0400 15.17132323 14574
